[{"OBJECT_NAME":"STARLINK-4189","OBJECT_ID":"2022-062Z","EPOCH":"2026-03-09T11:51:54.504576","MEAN_MOTION":15.088298,"ECCENTRICITY":0.0001274,"INCLINATION":53.2173,"RA_OF_ASC_NODE":24.9711,"ARG_OF_PERICENTER":102.4564,"MEAN_ANOMALY":257.6571,"EPHEMERIS_TYPE":0,"CLASSIFICATION_TYPE":"U","NORAD_CAT_ID":52853,"ELEMENT_SET_NO":999,"REV_AT_EPOCH":20589,"BSTAR":5.0514e-5,"MEAN_MOTION_DOT":5.16e-6,"MEAN_MOTION_DDOT":0},{"OBJECT_NAME":"THOR ABLESTAR DEB","OBJECT_ID":"1961-015HM","EPOCH":"2026-03-09T12:53:31.788672","MEAN_MOTION":15.12609006,"ECCENTRICITY":0.0020802,"INCLINATION":66.4912,"RA_OF_ASC_NODE":108.7707,"ARG_OF_PERICENTER":275.236,"MEAN_ANOMALY":209.827,"EPHEMERIS_TYPE":0,"CLASSIFICATION_TYPE":"U","NORAD_CAT_ID":660,"ELEMENT_SET_NO":999,"REV_AT_EPOCH":37032,"BSTAR":0.0020976473,"MEAN_MOTION_DOT":0.00036985,"MEAN_MOTION_DDOT":0}]
